[{"OBJECT_NAME":"STARLINK-4579","OBJECT_ID":"2022-105AF","EPOCH":"2026-03-09T14:56:14.058816","MEAN_MOTION":15.05644759,"ECCENTRICITY":0.0002038,"INCLINATION":97.6033,"RA_OF_ASC_NODE":311.1666,"ARG_OF_PERICENTER":98.0084,"MEAN_ANOMALY":262.1374,"EPHEMERIS_TYPE":0,"CLASSIFICATION_TYPE":"U","NORAD_CAT_ID":53677,"ELEMENT_SET_NO":999,"REV_AT_EPOCH":19329,"BSTAR":0.0002046,"MEAN_MOTION_DOT":2.892e-5,"MEAN_MOTION_DDOT":0},{"OBJECT_NAME":"STARLING 2","OBJECT_ID":"2023-100B","EPOCH":"2026-03-09T22:50:31.935264","MEAN_MOTION":15.06172687,"ECCENTRICITY":0.00065493,"INCLINATION":99.5117,"RA_OF_ASC_NODE":63.5956,"ARG_OF_PERICENTER":83.1191,"MEAN_ANOMALY":277.0775,"EPHEMERIS_TYPE":0,"CLASSIFICATION_TYPE":"U","NORAD_CAT_ID":57387,"ELEMENT_SET_NO":999,"REV_AT_EPOCH":14496,"BSTAR":0.00017665492,"MEAN_MOTION_DOT":2.498e-5,"MEAN_MOTION_DDOT":0}]
